{
  "type": "FeatureCollection",
  "features": [
    {
      "type": "Feature",
      "properties": {
        "norad_id": 66569,
        "name": "STARLINK-35835",
        "group": "last-30-days",
        "lat": 32.26098852101617,
        "lon": -155.33317844581723,
        "alt_km": 367.63354406380586,
        "timestamp": "2025-12-05T18:53:12.097303+00:00",
        "meta_object_name": "STARLINK-35835",
        "meta_object_id": "2025-268N",
        "meta_epoch": "2025-12-05T06:00:02.000160",
        "meta_mean_motion": 15.67865255,
        "meta_eccentricity": 0.00016779,
        "meta_inclination": 42.9994,
        "meta_ra_of_asc_node": 165.2434,
        "meta_arg_of_pericenter": 263.398,
        "meta_mean_anomaly": 356.2029,
        "meta_ephemeris_type": 0,
        "meta_classification_type": "U",
        "meta_norad_cat_id": 66569,
        "meta_element_set_no": 999,
        "meta_rev_at_epoch": 346,
        "meta_bstar": -0.019950968,
        "meta_mean_motion_dot": -0.01994097,
        "meta_mean_motion_ddot": 0,
        "tle_line1": "1 66569U 25268N   25339.25002315 -.01994097  00000+0 -19951-1 0  9991",
        "tle_line2": "2 66569  42.9994 165.2434 0001677 263.3980 356.2029 15.67865255  3468"
      },
      "geometry": {
        "type": "Point",
        "coordinates": [
          -155.33317844581723,
          32.26098852101617
        ]
      }
    },
    {
      "type": "Feature",
      "properties": {
        "norad_id": 66570,
        "name": "STARLINK-35834",
        "group": "last-30-days",
        "lat": 33.20798847153688,
        "lon": -153.35403338318986,
        "alt_km": 367.4942002446178,
        "timestamp": "2025-12-05T18:53:12.097315+00:00",
        "meta_object_name": "STARLINK-35834",
        "meta_object_id": "2025-268P",
        "meta_epoch": "2025-12-05T06:00:02.000160",
        "meta_mean_motion": 15.67853714,
        "meta_eccentricity": 0.00016212,
        "meta_inclination": 42.9994,
        "meta_ra_of_asc_node": 165.2379,
        "meta_arg_of_pericenter": 261.6286,
        "meta_mean_anomaly": 359.8983,
        "meta_ephemeris_type": 0,
        "meta_classification_type": "U",
        "meta_norad_cat_id": 66570,
        "meta_element_set_no": 999,
        "meta_rev_at_epoch": 346,
        "meta_bstar": -0.019822931,
        "meta_mean_motion_dot": -0.01981949,
        "meta_mean_motion_ddot": 0,
        "tle_line1": "1 66570U 25268P   25339.25002315 -.01981949  00000+0 -19823-1 0  9993",
        "tle_line2": "2 66570  42.9994 165.2379 0001621 261.6286 359.8983 15.67853714  3462"
      },
      "geometry": {
        "type": "Point",
        "coordinates": [
          -153.35403338318986,
          33.20798847153688
        ]
      }
    },
    {
      "type": "Feature",
      "properties": {
        "norad_id": 66571,
        "name": "STARLINK-35836",
        "group": "last-30-days",
        "lat": 34.122612703986064,
        "lon": -151.33180000541816,
        "alt_km": 367.41360820264254,
        "timestamp": "2025-12-05T18:53:12.097325+00:00",
        "meta_object_name": "STARLINK-35836",
        "meta_object_id": "2025-268Q",
        "meta_epoch": "2025-12-05T06:00:02.000160",
        "meta_mean_motion": 15.67858013,
        "meta_eccentricity": 0.00016995,
        "meta_inclination": 42.9995,
        "meta_ra_of_asc_node": 165.2335,
        "meta_arg_of_pericenter": 262.2503,
        "meta_mean_anomaly": 1.1895,
        "meta_ephemeris_type": 0,
        "meta_classification_type": "U",
        "meta_norad_cat_id": 66571,
        "meta_element_set_no": 999,
        "meta_rev_at_epoch": 346,
        "meta_bstar": -0.019863089,
        "meta_mean_motion_dot": -0.01985858,
        "meta_mean_motion_ddot": 0,
        "tle_line1": "1 66571U 25268Q   25339.25002315 -.01985858  00000+0 -19863-1 0  9991",
        "tle_line2": "2 66571  42.9995 165.2335 0001699 262.2503   1.1895 15.67858013  3466"
      },
      "geometry": {
        "type": "Point",
        "coordinates": [
          -151.33180000541816,
          34.122612703986064
        ]
      }
    },
    {
      "type": "Feature",
      "properties": {
        "norad_id": 66572,
        "name": "STARLINK-35870",
        "group": "last-30-days",
        "lat": 35.00293975842129,
        "lon": -149.26617642930665,
        "alt_km": 367.3142095576168,
        "timestamp": "2025-12-05T18:53:12.097337+00:00",
        "meta_object_name": "STARLINK-35870",
        "meta_object_id": "2025-268R",
        "meta_epoch": "2025-12-05T06:00:02.000160",
        "meta_mean_motion": 15.67854805,
        "meta_eccentricity": 0.00016963,
        "meta_inclination": 42.9996,
        "meta_ra_of_asc_node": 165.2297,
        "meta_arg_of_pericenter": 261.2793,
        "meta_mean_anomaly": 4.0816,
        "meta_ephemeris_type": 0,
        "meta_classification_type": "U",
        "meta_norad_cat_id": 66572,
        "meta_element_set_no": 999,
        "meta_rev_at_epoch": 346,
        "meta_bstar": -0.019846727,
        "meta_mean_motion_dot": -0.01984184,
        "meta_mean_motion_ddot": 0,
        "tle_line1": "1 66572U 25268R   25339.25002315 -.01984184  00000+0 -19847-1 0  9995",
        "tle_line2": "2 66572  42.9996 165.2297 0001696 261.2793   4.0816 15.67854805  3462"
      },
      "geometry": {
        "type": "Point",
        "coordinates": [
          -149.26617642930665,
          35.00293975842129
        ]
      }
    },
    {
      "type": "Feature",
      "properties": {
        "norad_id": 66573,
        "name": "STARLINK-35650",
        "group": "last-30-days",
        "lat": 35.84851952728101,
        "lon": -147.15569343424878,
        "alt_km": 367.14808949723556,
        "timestamp": "2025-12-05T18:53:12.097347+00:00",
        "meta_object_name": "STARLINK-35650",
        "meta_object_id": "2025-268S",
        "meta_epoch": "2025-12-05T06:00:02.000160",
        "meta_mean_motion": 15.67856009,
        "meta_eccentricity": 0.0001704,
        "meta_inclination": 42.9997,
        "meta_ra_of_asc_node": 165.2238,
        "meta_arg_of_pericenter": 264.6181,
        "meta_mean_anomaly": 2.6565,
        "meta_ephemeris_type": 0,
        "meta_classification_type": "U",
        "meta_norad_cat_id": 66573,
        "meta_element_set_no": 999,
        "meta_rev_at_epoch": 346,
        "meta_bstar": -0.01983301,
        "meta_mean_motion_dot": -0.01983069,
        "meta_mean_motion_ddot": 0,
        "tle_line1": "1 66573U 25268S   25339.25002315 -.01983069  00000+0 -19833-1 0  9992",
        "tle_line2": "2 66573  42.9997 165.2238 0001704 264.6181   2.6565 15.67856009  3460"
      },
      "geometry": {
        "type": "Point",
        "coordinates": [
          -147.15569343424878,
          35.84851952728101
        ]
      }
    },
    {
      "type": "Feature",
      "properties": {
        "norad_id": 66574,
        "name": "STARLINK-35812",
        "group": "last-30-days",
        "lat": 36.65496251980777,
        "lon": -145.0029054150064,
        "alt_km": 367.0763221661755,
        "timestamp": "2025-12-05T18:53:12.097357+00:00",
        "meta_object_name": "STARLINK-35812",
        "meta_object_id": "2025-268T",
        "meta_epoch": "2025-12-05T06:00:02.000160",
        "meta_mean_motion": 15.67858809,
        "meta_eccentricity": 0.0001728,
        "meta_inclination": 42.9997,
        "meta_ra_of_asc_node": 165.2188,
        "meta_arg_of_pericenter": 264.1752,
        "meta_mean_anomaly": 5.0161,
        "meta_ephemeris_type": 0,
        "meta_classification_type": "U",
        "meta_norad_cat_id": 66574,
        "meta_element_set_no": 999,
        "meta_rev_at_epoch": 346,
        "meta_bstar": -0.019883556,
        "meta_mean_motion_dot": -0.0198774,
        "meta_mean_motion_ddot": 0,
        "tle_line1": "1 66574U 25268T   25339.25002315 -.01987740  00000+0 -19884-1 0  9999",
        "tle_line2": "2 66574  42.9997 165.2188 0001728 264.1752   5.0161 15.67858809  3469"
      },
      "geometry": {
        "type": "Point",
        "coordinates": [
          -145.0029054150064,
          36.65496251980777
        ]
      }
    },
    {
      "type": "Feature",
      "properties": {
        "norad_id": 66575,
        "name": "STARLINK-35810",
        "group": "last-30-days",
        "lat": 37.42138637235035,
        "lon": -142.80596966067245,
        "alt_km": 367.02072948657224,
        "timestamp": "2025-12-05T18:53:12.097367+00:00",
        "meta_object_name": "STARLINK-35810",
        "meta_object_id": "2025-268U",
        "meta_epoch": "2025-12-05T06:00:02.000160",
        "meta_mean_motion": 15.67863703,
        "meta_eccentricity": 0.00017433,
        "meta_inclination": 42.9996,
        "meta_ra_of_asc_node": 165.214,
        "meta_arg_of_pericenter": 262.5108,
        "meta_mean_anomaly": 8.5953,
        "meta_ephemeris_type": 0,
        "meta_classification_type": "U",
        "meta_norad_cat_id": 66575,
        "meta_element_set_no": 999,
        "meta_rev_at_epoch": 346,
        "meta_bstar": -0.019951639,
        "meta_mean_motion_dot": -0.01994097,
        "meta_mean_motion_ddot": 0,
        "tle_line1": "1 66575U 25268U   25339.25002315 -.01994097  00000+0 -19952-1 0  9999",
        "tle_line2": "2 66575  42.9996 165.2140 0001743 262.5108   8.5953 15.67863703  3467"
      },
      "geometry": {
        "type": "Point",
        "coordinates": [
          -142.80596966067245,
          37.42138637235035
        ]
      }
    }
  ]
}